KUIPER-00061            
1 64521U 25134X   26009.61449777 -.00004897  00000+0 -61349-3 0  9990
2 64521  51.9012 129.3157 0000417  73.8229 286.2779 14.79954322 31381
KUIPER-00062            
1 64522U 25134Y   26009.61038436  .00004622  00000+0  56074-3 0  9990
2 64522  51.8966 133.2823 0007498  97.2196 262.9622 14.85173759 31340
KUIPER-00063            
1 64523U 25134Z   26009.53615207  .00000511  00000+0  95979-4 0  9990
2 64523  51.9020 139.6634 0000227  84.1195 275.9793 14.79950112 31241
KUIPER-00064            
1 64524U 25134AA  26009.53886396 -.00002157  00000+0 -25368-3 0  9994
2 64524  51.9026 137.0712 0007021 154.5008 205.6302 14.79927009 31280
KUIPER-00065            
1 64525U 25134AB  26009.66822821  .00004480  00000+0  61561-3 0  9996
2 64525  51.9021 141.6487 0006120  92.5255 267.6408 14.79979427 31219
KUIPER-00066            
1 64526U 25134AC  26009.55798968  .00016012  00000+0  71074-3 0  9993
2 64526  51.8892 103.4678 0000825  31.9617 328.1413 15.21704003 31750
KUIPER-00069            
1 64816U 25151A   26009.69296544  .00002891  00000+0  40823-3 0  9990
2 64816  51.9010 181.4973 0003902 100.7828 259.3574 14.79927435 28024
KUIPER-00070            
1 64817U 25151B   26009.83486386  .00002423  00000+0  34663-3 0  9998
2 64817  51.8984 205.8194 0011212  65.4740 294.7390 14.79956356 27700
