<?xml version="1.0" encoding="UTF-8"?>
<ndm xmlns:xsi="http://www.w3.org/2001/XMLSchema-instance" xsi:noNamespaceSchemaLocation="https://sanaregistry.org/r/ndmxml_unqualified/ndmxml-2.0.0-master-2.0.xsd">
<omm id="CCSDS_OMM_VERS" version="2.0">
<header><CREATION_DATE/><ORIGINATOR/></header><body><segment><metadata><OBJECT_NAME>KUIPER-00061</OBJECT_NAME><OBJECT_ID>2025-134X</OBJECT_ID><CENTER_NAME>EARTH</CENTER_NAME><REF_FRAME>TEME</REF_FRAME><TIME_SYSTEM>UTC</TIME_SYSTEM><MEAN_ELEMENT_THEORY>SGP4</MEAN_ELEMENT_THEORY></metadata><data><meanElements><EPOCH>2026-01-09T14:44:52.607328</EPOCH><MEAN_MOTION>14.79954322</MEAN_MOTION><ECCENTRICITY>.00004175</ECCENTRICITY><INCLINATION>51.9012</INCLINATION><RA_OF_ASC_NODE>129.3157</RA_OF_ASC_NODE><ARG_OF_PERICENTER>73.8229</ARG_OF_PERICENTER><MEAN_ANOMALY>286.2779</MEAN_ANOMALY></meanElements><tleParameters><EPHEMERIS_TYPE>0</EPHEMERIS_TYPE><CLASSIFICATION_TYPE>U</CLASSIFICATION_TYPE><NORAD_CAT_ID>64521</NORAD_CAT_ID><ELEMENT_SET_NO>999</ELEMENT_SET_NO><REV_AT_EPOCH>3138</REV_AT_EPOCH><BSTAR>-.61349415E-3</BSTAR><MEAN_MOTION_DOT>-.4897E-4</MEAN_MOTION_DOT><MEAN_MOTION_DDOT>0</MEAN_MOTION_DDOT></tleParameters></data></segment></body></omm>
<omm id="CCSDS_OMM_VERS" version="2.0">
<header><CREATION_DATE/><ORIGINATOR/></header><body><segment><metadata><OBJECT_NAME>KUIPER-00062</OBJECT_NAME><OBJECT_ID>2025-134Y</OBJECT_ID><CENTER_NAME>EARTH</CENTER_NAME><REF_FRAME>TEME</REF_FRAME><TIME_SYSTEM>UTC</TIME_SYSTEM><MEAN_ELEMENT_THEORY>SGP4</MEAN_ELEMENT_THEORY></metadata><data><meanElements><EPOCH>2026-01-09T14:38:57.208704</EPOCH><MEAN_MOTION>14.85173759</MEAN_MOTION><ECCENTRICITY>.00074987</ECCENTRICITY><INCLINATION>51.8966</INCLINATION><RA_OF_ASC_NODE>133.2823</RA_OF_ASC_NODE><ARG_OF_PERICENTER>97.2196</ARG_OF_PERICENTER><MEAN_ANOMALY>262.9622</MEAN_ANOMALY></meanElements><tleParameters><EPHEMERIS_TYPE>0</EPHEMERIS_TYPE><CLASSIFICATION_TYPE>U</CLASSIFICATION_TYPE><NORAD_CAT_ID>64522</NORAD_CAT_ID><ELEMENT_SET_NO>999</ELEMENT_SET_NO><REV_AT_EPOCH>3134</REV_AT_EPOCH><BSTAR>.56074036E-3</BSTAR><MEAN_MOTION_DOT>.4622E-4</MEAN_MOTION_DOT><MEAN_MOTION_DDOT>0</MEAN_MOTION_DDOT></tleParameters></data></segment></body></omm>
<omm id="CCSDS_OMM_VERS" version="2.0">
<header><CREATION_DATE/><ORIGINATOR/></header><body><segment><metadata><OBJECT_NAME>KUIPER-00063</OBJECT_NAME><OBJECT_ID>2025-134Z</OBJECT_ID><CENTER_NAME>EARTH</CENTER_NAME><REF_FRAME>TEME</REF_FRAME><TIME_SYSTEM>UTC</TIME_SYSTEM><MEAN_ELEMENT_THEORY>SGP4</MEAN_ELEMENT_THEORY></metadata><data><meanElements><EPOCH>2026-01-09T12:52:03.538848</EPOCH><MEAN_MOTION>14.79950112</MEAN_MOTION><ECCENTRICITY>.00002274</ECCENTRICITY><INCLINATION>51.9020</INCLINATION><RA_OF_ASC_NODE>139.6634</RA_OF_ASC_NODE><ARG_OF_PERICENTER>84.1195</ARG_OF_PERICENTER><MEAN_ANOMALY>275.9793</MEAN_ANOMALY></meanElements><tleParameters><EPHEMERIS_TYPE>0</EPHEMERIS_TYPE><CLASSIFICATION_TYPE>U</CLASSIFICATION_TYPE><NORAD_CAT_ID>64523</NORAD_CAT_ID><ELEMENT_SET_NO>999</ELEMENT_SET_NO><REV_AT_EPOCH>3124</REV_AT_EPOCH><BSTAR>.95979084E-4</BSTAR><MEAN_MOTION_DOT>.511E-5</MEAN_MOTION_DOT><MEAN_MOTION_DDOT>0</MEAN_MOTION_DDOT></tleParameters></data></segment></body></omm>
<omm id="CCSDS_OMM_VERS" version="2.0">
<header><CREATION_DATE/><ORIGINATOR/></header><body><segment><metadata><OBJECT_NAME>KUIPER-00064</OBJECT_NAME><OBJECT_ID>2025-134AA</OBJECT_ID><CENTER_NAME>EARTH</CENTER_NAME><REF_FRAME>TEME</REF_FRAME><TIME_SYSTEM>UTC</TIME_SYSTEM><MEAN_ELEMENT_THEORY>SGP4</MEAN_ELEMENT_THEORY></metadata><data><meanElements><EPOCH>2026-01-09T12:55:57.846144</EPOCH><MEAN_MOTION>14.79927009</MEAN_MOTION><ECCENTRICITY>.00070213</ECCENTRICITY><INCLINATION>51.9026</INCLINATION><RA_OF_ASC_NODE>137.0712</RA_OF_ASC_NODE><ARG_OF_PERICENTER>154.5008</ARG_OF_PERICENTER><MEAN_ANOMALY>205.6302</MEAN_ANOMALY></meanElements><tleParameters><EPHEMERIS_TYPE>0</EPHEMERIS_TYPE><CLASSIFICATION_TYPE>U</CLASSIFICATION_TYPE><NORAD_CAT_ID>64524</NORAD_CAT_ID><ELEMENT_SET_NO>999</ELEMENT_SET_NO><REV_AT_EPOCH>3128</REV_AT_EPOCH><BSTAR>-.25368005E-3</BSTAR><MEAN_MOTION_DOT>-.2157E-4</MEAN_MOTION_DOT><MEAN_MOTION_DDOT>0</MEAN_MOTION_DDOT></tleParameters></data></segment></body></omm>
<omm id="CCSDS_OMM_VERS" version="2.0">
<header><CREATION_DATE/><ORIGINATOR/></header><body><segment><metadata><OBJECT_NAME>KUIPER-00065</OBJECT_NAME><OBJECT_ID>2025-134AB</OBJECT_ID><CENTER_NAME>EARTH</CENTER_NAME><REF_FRAME>TEME</REF_FRAME><TIME_SYSTEM>UTC</TIME_SYSTEM><MEAN_ELEMENT_THEORY>SGP4</MEAN_ELEMENT_THEORY></metadata><data><meanElements><EPOCH>2026-01-09T16:02:14.917344</EPOCH><MEAN_MOTION>14.79979427</MEAN_MOTION><ECCENTRICITY>.00061205</ECCENTRICITY><INCLINATION>51.9021</INCLINATION><RA_OF_ASC_NODE>141.6487</RA_OF_ASC_NODE><ARG_OF_PERICENTER>92.5255</ARG_OF_PERICENTER><MEAN_ANOMALY>267.6408</MEAN_ANOMALY></meanElements><tleParameters><EPHEMERIS_TYPE>0</EPHEMERIS_TYPE><CLASSIFICATION_TYPE>U</CLASSIFICATION_TYPE><NORAD_CAT_ID>64525</NORAD_CAT_ID><ELEMENT_SET_NO>999</ELEMENT_SET_NO><REV_AT_EPOCH>3121</REV_AT_EPOCH><BSTAR>.61561192E-3</BSTAR><MEAN_MOTION_DOT>.448E-4</MEAN_MOTION_DOT><MEAN_MOTION_DDOT>0</MEAN_MOTION_DDOT></tleParameters></data></segment></body></omm>
<omm id="CCSDS_OMM_VERS" version="2.0">
<header><CREATION_DATE/><ORIGINATOR/></header><body><segment><metadata><OBJECT_NAME>KUIPER-00066</OBJECT_NAME><OBJECT_ID>2025-134AC</OBJECT_ID><CENTER_NAME>EARTH</CENTER_NAME><REF_FRAME>TEME</REF_FRAME><TIME_SYSTEM>UTC</TIME_SYSTEM><MEAN_ELEMENT_THEORY>SGP4</MEAN_ELEMENT_THEORY></metadata><data><meanElements><EPOCH>2026-01-09T13:23:30.308352</EPOCH><MEAN_MOTION>15.21704003</MEAN_MOTION><ECCENTRICITY>.00008258</ECCENTRICITY><INCLINATION>51.8892</INCLINATION><RA_OF_ASC_NODE>103.4678</RA_OF_ASC_NODE><ARG_OF_PERICENTER>31.9617</ARG_OF_PERICENTER><MEAN_ANOMALY>328.1413</MEAN_ANOMALY></meanElements><tleParameters><EPHEMERIS_TYPE>0</EPHEMERIS_TYPE><CLASSIFICATION_TYPE>U</CLASSIFICATION_TYPE><NORAD_CAT_ID>64526</NORAD_CAT_ID><ELEMENT_SET_NO>999</ELEMENT_SET_NO><REV_AT_EPOCH>3175</REV_AT_EPOCH><BSTAR>.71073545E-3</BSTAR><MEAN_MOTION_DOT>.16012E-3</MEAN_MOTION_DOT><MEAN_MOTION_DDOT>0</MEAN_MOTION_DDOT></tleParameters></data></segment></body></omm>
<omm id="CCSDS_OMM_VERS" version="2.0">
<header><CREATION_DATE/><ORIGINATOR/></header><body><segment><metadata><OBJECT_NAME>KUIPER-00069</OBJECT_NAME><OBJECT_ID>2025-151A</OBJECT_ID><CENTER_NAME>EARTH</CENTER_NAME><REF_FRAME>TEME</REF_FRAME><TIME_SYSTEM>UTC</TIME_SYSTEM><MEAN_ELEMENT_THEORY>SGP4</MEAN_ELEMENT_THEORY></metadata><data><meanElements><EPOCH>2026-01-09T16:37:52.214016</EPOCH><MEAN_MOTION>14.79927435</MEAN_MOTION><ECCENTRICITY>.00039028</ECCENTRICITY><INCLINATION>51.9010</INCLINATION><RA_OF_ASC_NODE>181.4973</RA_OF_ASC_NODE><ARG_OF_PERICENTER>100.7828</ARG_OF_PERICENTER><MEAN_ANOMALY>259.3574</MEAN_ANOMALY></meanElements><tleParameters><EPHEMERIS_TYPE>0</EPHEMERIS_TYPE><CLASSIFICATION_TYPE>U</CLASSIFICATION_TYPE><NORAD_CAT_ID>64816</NORAD_CAT_ID><ELEMENT_SET_NO>999</ELEMENT_SET_NO><REV_AT_EPOCH>2802</REV_AT_EPOCH><BSTAR>.40822656E-3</BSTAR><MEAN_MOTION_DOT>.2891E-4</MEAN_MOTION_DOT><MEAN_MOTION_DDOT>0</MEAN_MOTION_DDOT></tleParameters></data></segment></body></omm>
<omm id="CCSDS_OMM_VERS" version="2.0">
<header><CREATION_DATE/><ORIGINATOR/></header><body><segment><metadata><OBJECT_NAME>KUIPER-00070</OBJECT_NAME><OBJECT_ID>2025-151B</OBJECT_ID><CENTER_NAME>EARTH</CENTER_NAME><REF_FRAME>TEME</REF_FRAME><TIME_SYSTEM>UTC</TIME_SYSTEM><MEAN_ELEMENT_THEORY>SGP4</MEAN_ELEMENT_THEORY></metadata><data><meanElements><EPOCH>2026-01-09T20:02:12.237504</EPOCH><MEAN_MOTION>14.79956356</MEAN_MOTION><ECCENTRICITY>.00112128</ECCENTRICITY><INCLINATION>51.8984</INCLINATION><RA_OF_ASC_NODE>205.8194</RA_OF_ASC_NODE><ARG_OF_PERICENTER>65.4740</ARG_OF_PERICENTER><MEAN_ANOMALY>294.7390</MEAN_ANOMALY></meanElements><tleParameters><EPHEMERIS_TYPE>0</EPHEMERIS_TYPE><CLASSIFICATION_TYPE>U</CLASSIFICATION_TYPE><NORAD_CAT_ID>64817</NORAD_CAT_ID><ELEMENT_SET_NO>999</ELEMENT_SET_NO><REV_AT_EPOCH>2770</REV_AT_EPOCH><BSTAR>.34662531E-3</BSTAR><MEAN_MOTION_DOT>.2423E-4</MEAN_MOTION_DOT><MEAN_MOTION_DDOT>0</MEAN_MOTION_DDOT></tleParameters></data></segment></body></omm>

</ndm>
